OBJECT_NAME,OBJECT_ID,EPOCH,MEAN_MOTION,ECCENTRICITY,INCLINATION,RA_OF_ASC_NODE,ARG_OF_PERICENTER,MEAN_ANOMALY,EPHEMERIS_TYPE,CLASSIFICATION_TYPE,NORAD_CAT_ID,ELEMENT_SET_NO,REV_AT_EPOCH,BSTAR,MEAN_MOTION_DOT,MEAN_MOTION_DDOT
SAUDISAT 2,2004-025F,2026-06-26T05:35:57.594336,14.56688640,.0023437,98.5508,177.4490,269.0233,90.8279,0,U,28371,999,16706,.66702489E-4,.249E-5,0
COSMOS 2407,2004-028A,2026-06-26T05:42:13.476672,13.76335362,.00381154,82.9604,68.1311,225.7261,253.5951,0,U,28380,999,10112,.30795697E-4,.45E-6,0
COSMOS 2414,2005-002A,2026-06-26T02:46:26.072256,13.87926949,.00389425,82.9493,36.8920,305.2235,54.5285,0,U,28521,999,8505,.27849471E-4,.49E-6,0
INMARSAT 4-F1,2005-009A,2026-06-25T11:27:38.676672,1.00272513,.0002926,5.1798,42.7746,51.9837,168.8779,0,U,28628,999,7775,0,.38E-6,0
SJ-7,2005-024A,2026-06-25T23:14:37.821984,15.21667162,.00154028,97.7283,207.3081,8.2170,351.9315,0,U,28737,999,14936,.43248469E-3,.974E-4,0
CUBESAT XI-V,2005-043F,2026-06-26T05:39:13.895136,14.72654434,.0014267,98.2992,333.0476,171.8750,188.2691,0,U,28895,999,10308,.23138605E-3,.1423E-4,0
HINODE (SOLAR-B),2006-041A,2026-06-26T07:33:36.984096,14.68634476,.00159674,98.0544,193.3330,258.1665,101.7750,0,U,29479,999,5621,.12723835E-3,.692E-5,0
SHIJIAN-6 02B (SJ-6 02B),2006-046B,2026-06-26T08:14:48.990048,15.01398321,.00153301,97.7162,206.3462,34.6939,325.5282,0,U,29506,999,7211,.12874741E-3,.1603E-4,0
DMSP 5D-3 F17 (USA 191),2006-050A,2026-06-26T06:59:41.317152,14.14993958,.00108157,98.7378,183.6752,35.6006,324.5887,0,U,29522,999,1371,.42990657E-4,.4E-6,0
LAPAN-TUBSAT,2007-001A,2026-06-26T06:39:47.166336,14.85956933,.00126625,98.1344,176.7063,150.4216,209.7717,0,U,29709,999,5250,.51392129E-4,.391E-5,0
HAIYANG-1B,2007-010A,2026-06-26T05:37:34.614624,14.31029067,.00136385,98.3498,158.7289,169.2133,190.9345,0,U,31113,999,193,.52195287E-4,.96E-6,0
COSMO-SKYMED 2,2007-059A,2026-06-26T06:35:56.671008,14.82152312,.00013552,97.8888,0.7411,88.1483,271.9885,0,U,32376,999,335,.63611071E-4,.454E-5,0
CARTOSAT-2A,2008-021A,2026-06-26T07:31:40.790784,14.79252798,.00133598,97.7633,225.7109,82.5690,277.7039,0,U,32783,999,98015,.15515754E-3,.1104E-4,0
CUTE-1.7+APD II (CO-65),2008-021C,2026-06-26T06:20:16.459296,15.09534115,.00088532,97.8274,158.8717,11.3283,348.8143,0,U,32785,999,98656,.32854789E-3,.5208E-4,0
SEEDS II (CO-66),2008-021J,2026-06-25T22:45:21.318624,15.33033686,.00004268,97.7517,175.2655,222.9381,137.1827,0,U,32791,999,98863,.67552337E-3,.21509E-3,0
YUBILEINY (RS30),2008-025A,2026-06-26T06:33:03.788928,12.43180220,.0018583,82.5047,349.7875,293.0308,66.8812,0,U,32953,999,82082,.7249171E-3,.111E-5,0
FENGYUN 3A,2008-026A,2026-06-26T06:44:10.023648,14.19572949,.00098638,98.6884,117.9439,100.2197,260.0092,0,U,32958,999,93669,.50626301E-4,.64E-6,0
HUANJING 1A (HJ-1A),2008-041A,2026-06-26T06:27:21.161952,14.84008675,.00205585,97.6684,162.7563,106.7677,253.5796,0,U,33320,999,95975,.24231137E-3,.1973E-4,0
HUANJING 1B (HJ-1B),2008-041B,2026-06-26T05:48:46.917216,14.83329355,.00368325,97.6520,165.8747,151.3777,208.9470,0,U,33321,999,95975,.72016043E-4,.545E-5,0
SHIJIAN-6 03A (SJ-6 03A),2008-053A,2026-06-26T06:46:16.203936,15.17247027,.00107247,97.8413,210.9187,349.8164,10.2849,0,U,33408,999,96434,.23721551E-3,.4654E-4,0
SHIJIAN-6 03B (SJ-6 03B),2008-053B,2026-06-26T06:41:58.140960,15.04324877,.00197642,97.8560,197.3208,14.0987,346.0786,0,U,33409,999,96411,.14772023E-3,.2002E-4,0
